IRIDIUM 39              
1 25042U 97069D   25324.99276477  .00000757  00000+0  19197-3 0  9999
2 25042  86.3908 143.9592 0019052 137.7411 222.5265 14.49455998471670
IRIDIUM 38              
1 25043U 97069E   25325.06300419  .00000468  00000+0  14762-3 0  9995
2 25043  86.3977 167.2222 0001233  21.8427 338.2823 14.38284710468501
IRIDIUM 42              
1 25077U 97077A   25325.05334296  .00000406  00000+0  13181-3 0  9996
2 25077  86.3988 173.5846 0001766  65.3536 294.7845 14.36505641463712
IRIDIUM 44              
1 25078U 97077B   25325.07047163  .00000435  00000+0  13071-3 0  9993
2 25078  86.3966 155.1008 0001254 150.1431 209.9839 14.40405701466281
IRIDIUM 45              
1 25104U 97082A   25325.09816411  .00021888  00000+0  63957-3 0  9994
2 25104  86.3537 331.3320 0104631 100.7369 260.5680 15.29775719475963
IRIDIUM 24              
1 25105U 97082B   25325.11772699  .00000461  00000+0  13375-3 0  9990
2 25105  86.3933  13.7256 0009140 280.9781  79.0391 14.42298553465838
IRIDIUM 51              
1 25262U 98018A   25325.14932794  .00081069  00000+0  10190-2 0  9995
2 25262  86.3742 337.2894 0058209   4.9738 355.2090 15.57321478471289
IRIDIUM 57              
1 25273U 98019B   25324.75320943  .00000450  00000+0  14828-3 0  9999
2 25273  86.3951  79.6102 0001951  93.3260 266.8160 14.36026494447257
